{"type": "FeatureCollection", "features": [ {"type": "Feature", "properties": {"norad_id": 34833, "name": "IRIDIUM 33 DEB", "group": "iridium-33-debris", "lat": 30.187211452914486, "lon": 52.38053600788456, "alt_km": 709.3115067794934, "timestamp": "2025-12-14T09:36:23.423492+00:00", "meta": {"OBJECT_NAME": "IRIDIUM 33 DEB", "OBJECT_ID": "1997-051MH", "EPOCH": "2025-12-13T15:51:07.307136", "MEAN_MOTION": 14.52387072, "ECCENTRICITY": 0.00217361, "INCLINATION": 86.393, "RA_OF_ASC_NODE": 50.5964, "ARG_OF_PERICENTER": 95.6989, "MEAN_ANOMALY": 29.3968, "EPHEMERIS_TYPE": 0, "CLASSIFICATION_TYPE": "U", "NORAD_CAT_ID": 34833, "ELEMENT_SET_NO": 999, "REV_AT_EPOCH": 87728, "BSTAR": 0.00099458313, "MEAN_MOTION_DOT": 4.082e-05, "MEAN_MOTION_DDOT": 0}, "tle": {"line1": "1 34833U 97051MH  25347.66050124  .00004082  00000+0  99458-3 0  9999", "line2": "2 34833  86.3930  50.5964 0021736  95.6989  29.3968 14.52387072877284"}}, "geometry": {"type": "Point", "coordinates": [52.38053600788456, 30.187211452914486]}}, {"type": "Feature", "properties": {"norad_id": 34870, "name": "IRIDIUM 33 DEB", "group": "iridium-33-debris", "lat": 33.61485904828144, "lon": 130.86475149905775, "alt_km": 628.5704233181568, "timestamp": "2025-12-14T09:36:23.423502+00:00", "meta": {"OBJECT_NAME": "IRIDIUM 33 DEB", "OBJECT_ID": "1997-051MQ", "EPOCH": "2025-12-13T15:51:00.242208", "MEAN_MOTION": 14.76459498, "ECCENTRICITY": 0.00163253, "INCLINATION": 86.31, "RA_OF_ASC_NODE": 313.6624, "ARG_OF_PERICENTER": 179.046, "MEAN_ANOMALY": 357.3162, "EPHEMERIS_TYPE": 0, "CLASSIFICATION_TYPE": "U", "NORAD_CAT_ID": 34870, "ELEMENT_SET_NO": 999, "REV_AT_EPOCH": 88924, "BSTAR": 0.0017247419, "MEAN_MOTION_DOT": 0.00012059, "MEAN_MOTION_DDOT": 0}, "tle": {"line1": "1 34870U 97051MQ  25347.66041947  .00012059  00000+0  17247-2 0  9991", "line2": "2 34870  86.3100 313.6624 0016325 179.0460 357.3162 14.76459498889246"}}, "geometry": {"type": "Point", "coordinates": [130.86475149905775, 33.61485904828144]}}, {"type": "Feature", "properties": {"norad_id": 34896, "name": "IRIDIUM 33 DEB", "group": "iridium-33-debris", "lat": -72.63302064912057, "lon": -45.906956764455714, "alt_km": 676.8373937617507, "timestamp": "2025-12-14T09:36:23.423513+00:00", "meta": {"OBJECT_NAME": "IRIDIUM 33 DEB", "OBJECT_ID": "1997-051MY", "EPOCH": "2025-12-13T16:42:42.386688", "MEAN_MOTION": 14.66293467, "ECCENTRICITY": 0.00244205, "INCLINATION": 86.3286, "RA_OF_ASC_NODE": 326.256, "ARG_OF_PERICENTER": 210.8837, "MEAN_ANOMALY": 322.3766, "EPHEMERIS_TYPE": 0, "CLASSIFICATION_TYPE": "U", "NORAD_CAT_ID": 34896, "ELEMENT_SET_NO": 999, "REV_AT_EPOCH": 87633, "BSTAR": 0.0011949443, "MEAN_MOTION_DOT": 6.641e-05, "MEAN_MOTION_DDOT": 0}, "tle": {"line1": "1 34896U 97051MY  25347.69632392  .00006641  00000+0  11949-2 0  9995", "line2": "2 34896  86.3286 326.2560 0024420 210.8837 322.3766 14.66293467876334"}}, "geometry": {"type": "Point", "coordinates": [-45.906956764455714, -72.63302064912057]}}, {"type": "Feature", "properties": {"norad_id": 34926, "name": "IRIDIUM 33 DEB", "group": "iridium-33-debris", "lat": -56.82289248372512, "lon": 1.5651711967091275, "alt_km": 666.4539361047036, "timestamp": "2025-12-14T09:36:23.423523+00:00", "meta": {"OBJECT_NAME": "IRIDIUM 33 DEB", "OBJECT_ID": "1997-051NF", "EPOCH": "2025-12-12T12:20:13.285824", "MEAN_MOTION": 14.54404213, "ECCENTRICITY": 0.00756259, "INCLINATION": 86.1328, "RA_OF_ASC_NODE": 8.3778, "ARG_OF_PERICENTER": 293.6501, "MEAN_ANOMALY": 219.03, "EPHEMERIS_TYPE": 0, "CLASSIFICATION_TYPE": "U", "NORAD_CAT_ID": 34926, "ELEMENT_SET_NO": 999, "REV_AT_EPOCH": 86453, "BSTAR": 0.0080603055, "MEAN_MOTION_DOT": 0.0003576, "MEAN_MOTION_DDOT": 0}, "tle": {"line1": "1 34926U 97051NF  25346.51404266  .00035760  00000+0  80603-2 0  9993", "line2": "2 34926  86.1328   8.3778 0075625 293.6501 219.0300 14.54404213864537"}}, "geometry": {"type": "Point", "coordinates": [1.5651711967091275, -56.82289248372512]}}, {"type": "Feature", "properties": {"norad_id": 34985, "name": "IRIDIUM 33 DEB", "group": "iridium-33-debris", "lat": -6.538303249883343, "lon": 55.754454543708334, "alt_km": 766.9016014462914, "timestamp": "2025-12-14T09:36:23.423533+00:00", "meta": {"OBJECT_NAME": "IRIDIUM 33 DEB", "OBJECT_ID": "1997-051NR", "EPOCH": "2025-12-12T23:13:51.153888", "MEAN_MOTION": 14.42012529, "ECCENTRICITY": 0.00207583, "INCLINATION": 86.37, "RA_OF_ASC_NODE": 56.7821, "ARG_OF_PERICENTER": 219.0302, "MEAN_ANOMALY": 263.5766, "EPHEMERIS_TYPE": 0, "CLASSIFICATION_TYPE": "U", "NORAD_CAT_ID": 34985, "ELEMENT_SET_NO": 999, "REV_AT_EPOCH": 87178, "BSTAR": 0.0010455492, "MEAN_MOTION_DOT": 3.457e-05, "MEAN_MOTION_DDOT": 0}, "tle": {"line1": "1 34985U 97051NR  25346.96795317  .00003457  00000+0  10455-2 0  9993", "line2": "2 34985  86.3700  56.7821 0020758 219.0302 263.5766 14.42012529871789"}}, "geometry": {"type": "Point", "coordinates": [55.754454543708334, -6.538303249883343]}}, {"type": "Feature", "properties": {"norad_id": 35051, "name": "IRIDIUM 33 DEB", "group": "iridium-33-debris", "lat": -40.57179913683055, "lon": 4.983289396095132, "alt_km": 744.4685388006919, "timestamp": "2025-12-14T09:36:23.423544+00:00", "meta": {"OBJECT_NAME": "IRIDIUM 33 DEB", "OBJECT_ID": "1997-051NX", "EPOCH": "2025-12-11T08:47:57.045408", "MEAN_MOTION": 14.47588957, "ECCENTRICITY": 0.00106566, "INCLINATION": 86.3243, "RA_OF_ASC_NODE": 9.4603, "ARG_OF_PERICENTER": 94.8899, "MEAN_ANOMALY": 265.3522, "EPHEMERIS_TYPE": 0, "CLASSIFICATION_TYPE": "U", "NORAD_CAT_ID": 35051, "ELEMENT_SET_NO": 999, "REV_AT_EPOCH": 86976, "BSTAR": 0.001042299, "MEAN_MOTION_DOT": 3.858e-05, "MEAN_MOTION_DDOT": 0}, "tle": {"line1": "1 35051U 97051NX  25345.36663247  .00003858  00000+0  10423-2 0  9997", "line2": "2 35051  86.3243   9.4603 0010656  94.8899 265.3522 14.47588957869768"}}, "geometry": {"type": "Point", "coordinates": [4.983289396095132, -40.57179913683055]}}, {"type": "Feature", "properties": {"norad_id": 35052, "name": "IRIDIUM 33 DEB", "group": "iridium-33-debris", "lat": 53.99955275633213, "lon": 24.831392809087617, "alt_km": 749.6552874721165, "timestamp": "2025-12-14T09:36:23.423553+00:00", "meta": {"OBJECT_NAME": "IRIDIUM 33 DEB", "OBJECT_ID": "1997-051NY", "EPOCH": "2025-12-13T01:38:09.843936", "MEAN_MOTION": 14.38492837, "ECCENTRICITY": 0.00136697, "INCLINATION": 86.331, "RA_OF_ASC_NODE": 20.3356, "ARG_OF_PERICENTER": 84.1848, "MEAN_ANOMALY": 276.0908, "EPHEMERIS_TYPE": 0, "CLASSIFICATION_TYPE": "U", "NORAD_CAT_ID": 35052, "ELEMENT_SET_NO": 999, "REV_AT_EPOCH": 87280, "BSTAR": 0.00026714686, "MEAN_MOTION_DOT": 8.36e-06, "MEAN_MOTION_DDOT": 0}, "tle": {"line1": "1 35052U 97051NY  25347.06816949  .00000836  00000+0  26715-3 0  9991", "line2": "2 35052  86.3310  20.3356 0013669  84.1848 276.0908 14.38492837872801"}}, "geometry": {"type": "Point", "coordinates": [24.831392809087617, 53.99955275633213]}}, {"type": "Feature", "properties": {"norad_id": 35080, "name": "IRIDIUM 33 DEB", "group": "iridium-33-debris", "lat": 26.21061816377635, "lon": -130.289755050091, "alt_km": 569.1067967346398, "timestamp": "2025-12-14T09:36:23.423576+00:00", "meta": {"OBJECT_NAME": "IRIDIUM 33 DEB", "OBJECT_ID": "1997-051PF", "EPOCH": "2025-12-12T03:35:19.907808", "MEAN_MOTION": 14.85960238, "ECCENTRICITY": 0.00604695, "INCLINATION": 86.207, "RA_OF_ASC_NODE": 52.6577, "ARG_OF_PERICENTER": 181.932, "MEAN_ANOMALY": 178.1681, "EPHEMERIS_TYPE": 0, "CLASSIFICATION_TYPE": "U", "NORAD_CAT_ID": 35080, "ELEMENT_SET_NO": 999, "REV_AT_EPOCH": 69679, "BSTAR": 0.0091733841, "MEAN_MOTION_DOT": 0.00083628, "MEAN_MOTION_DDOT": 0}, "tle": {"line1": "1 35080U 97051PF  25346.14953597  .00083628  00000+0  91734-2 0  9993", "line2": "2 35080  86.2070  52.6577 0060469 181.9320 178.1681 14.85960238696797"}}, "geometry": {"type": "Point", "coordinates": [-130.289755050091, 26.21061816377635]}}, {"type": "Feature", "properties": {"norad_id": 35297, "name": "IRIDIUM 33 DEB", "group": "iridium-33-debris", "lat": 0.7646085929141778, "lon": 62.097818168721865, "alt_km": 753.1629476070857, "timestamp": "2025-12-14T09:36:23.423587+00:00", "meta": {"OBJECT_NAME": "IRIDIUM 33 DEB", "OBJECT_ID": "1997-051PM", "EPOCH": "2025-12-12T22:42:20.538720", "MEAN_MOTION": 14.45159336, "ECCENTRICITY": 0.00177378, "INCLINATION": 86.3854, "RA_OF_ASC_NODE": 62.6701, "ARG_OF_PERICENTER": 139.4968, "MEAN_ANOMALY": 220.7558, "EPHEMERIS_TYPE": 0, "CLASSIFICATION_TYPE": "U", "NORAD_CAT_ID": 35297, "ELEMENT_SET_NO": 999, "REV_AT_EPOCH": 70429, "BSTAR": 0.0010165954, "MEAN_MOTION_DOT": 3.583e-05, "MEAN_MOTION_DDOT": 0}, "tle": {"line1": "1 35297U 97051PM  25346.94607105  .00003583  00000+0  10166-2 0  9994", "line2": "2 35297  86.3854  62.6701 0017737 139.4968 220.7558 14.45159336704291"}}, "geometry": {"type": "Point", "coordinates": [62.097818168721865, 0.7646085929141778]}}, {"type": "Feature", "properties": {"norad_id": 35299, "name": "IRIDIUM 33 DEB", "group": "iridium-33-debris", "lat": -85.92988585932156, "lon": -81.73237289379219, "alt_km": 804.6675552196548, "timestamp": "2025-12-14T09:36:23.423598+00:00", "meta": {"OBJECT_NAME": "IRIDIUM 33 DEB", "OBJECT_ID": "1997-051PP", "EPOCH": "2025-12-13T14:44:02.418432", "MEAN_MOTION": 14.40867678, "ECCENTRICITY": 0.00589789, "INCLINATION": 86.2888, "RA_OF_ASC_NODE": 32.8056, "ARG_OF_PERICENTER": 99.6043, "MEAN_ANOMALY": 52.2893, "EPHEMERIS_TYPE": 0, "CLASSIFICATION_TYPE": "U", "NORAD_CAT_ID": 35299, "ELEMENT_SET_NO": 999, "REV_AT_EPOCH": 86343, "BSTAR": 0.0010090204, "MEAN_MOTION_DOT": 3.321e-05, "MEAN_MOTION_DDOT": 0}, "tle": {"line1": "1 35299U 97051PP  25347.61391688  .00003321  00000+0  10090-2 0  9993", "line2": "2 35299  86.2888  32.8056 0058978  99.6043  52.2893 14.40867678863436"}}, "geometry": {"type": "Point", "coordinates": [-81.73237289379219, -85.92988585932156]}}]}